{"type": "FeatureCollection", "features": [ {"type": "Feature", "properties": {"norad_id": 66845, "name": "STARLINK-36068", "group": "last-30-days", "lat": -28.51792484362376, "lon": 24.17644394152343, "alt_km": 357.1409482048084, "timestamp": "2025-12-14T20:40:30.516937+00:00", "meta": {"OBJECT_NAME": "STARLINK-36068", "OBJECT_ID": "2025-280AA", "EPOCH": "2025-12-14T06:00:02.999808", "MEAN_MOTION": 15.74076367, "ECCENTRICITY": 0.00034335, "INCLINATION": 69.9933, "RA_OF_ASC_NODE": 194.484, "ARG_OF_PERICENTER": 269.4626, "MEAN_ANOMALY": 79.474, "EPHEMERIS_TYPE": 0, "CLASSIFICATION_TYPE": "U", "NORAD_CAT_ID": 66845, "ELEMENT_SET_NO": 999, "REV_AT_EPOCH": 314, "BSTAR": -0.011719207, "MEAN_MOTION_DOT": -0.01480465, "MEAN_MOTION_DDOT": 0}, "tle": {"line1": "1 66845U 25280AA  25348.25003472 -.01480465  00000+0 -11719-1 0  9990", "line2": "2 66845  69.9933 194.4840 0003433 269.4626  79.4740 15.74076367  3143"}}, "geometry": {"type": "Point", "coordinates": [24.17644394152343, -28.51792484362376]}}, {"type": "Feature", "properties": {"norad_id": 66846, "name": "STARLINK-36055", "group": "last-30-days", "lat": -24.98869885988887, "lon": 22.539159063012796, "alt_km": 356.99404231109384, "timestamp": "2025-12-14T20:40:30.516949+00:00", "meta": {"OBJECT_NAME": "STARLINK-36055", "OBJECT_ID": "2025-280AB", "EPOCH": "2025-12-14T06:00:02.999808", "MEAN_MOTION": 15.74057581, "ECCENTRICITY": 0.00033368, "INCLINATION": 69.9935, "RA_OF_ASC_NODE": 194.4885, "ARG_OF_PERICENTER": 269.3661, "MEAN_ANOMALY": 75.7485, "EPHEMERIS_TYPE": 0, "CLASSIFICATION_TYPE": "U", "NORAD_CAT_ID": 66846, "ELEMENT_SET_NO": 999, "REV_AT_EPOCH": 314, "BSTAR": -0.011516215, "MEAN_MOTION_DOT": -0.01456698, "MEAN_MOTION_DDOT": 0}, "tle": {"line1": "1 66846U 25280AB  25348.25003472 -.01456698  00000+0 -11516-1 0  9997", "line2": "2 66846  69.9935 194.4885 0003336 269.3661  75.7485 15.74057581  3147"}}, "geometry": {"type": "Point", "coordinates": [22.539159063012796, -24.98869885988887]}}, {"type": "Feature", "properties": {"norad_id": 66847, "name": "STARLINK-36061", "group": "last-30-days", "lat": -26.752126070922046, "lon": 23.34364288313663, "alt_km": 357.1342581671224, "timestamp": "2025-12-14T20:40:30.516959+00:00", "meta": {"OBJECT_NAME": "STARLINK-36061", "OBJECT_ID": "2025-280AC", "EPOCH": "2025-12-14T06:00:02.999808", "MEAN_MOTION": 15.74077566, "ECCENTRICITY": 0.00033215, "INCLINATION": 69.9932, "RA_OF_ASC_NODE": 194.4864, "ARG_OF_PERICENTER": 270.0943, "MEAN_ANOMALY": 76.9218, "EPHEMERIS_TYPE": 0, "CLASSIFICATION_TYPE": "U", "NORAD_CAT_ID": 66847, "ELEMENT_SET_NO": 999, "REV_AT_EPOCH": 309, "BSTAR": -0.011712169, "MEAN_MOTION_DOT": -0.0147966, "MEAN_MOTION_DDOT": 0}, "tle": {"line1": "1 66847U 25280AC  25348.25003472 -.01479660  00000+0 -11712-1 0  9990", "line2": "2 66847  69.9932 194.4864 0003321 270.0943  76.9218 15.74077566  3094"}}, "geometry": {"type": "Point", "coordinates": [23.34364288313663, -26.752126070922046]}}, {"type": "Feature", "properties": {"norad_id": 66848, "name": "STARLINK-36091", "group": "last-30-days", "lat": 34.381809592828986, "lon": 156.51731470610588, "alt_km": 309.7142559389349, "timestamp": "2025-12-14T20:40:30.516969+00:00", "meta": {"OBJECT_NAME": "STARLINK-36091", "OBJECT_ID": "2025-281A", "EPOCH": "2025-12-14T06:00:02.999808", "MEAN_MOTION": 15.87295795, "ECCENTRICITY": 0.00015126, "INCLINATION": 43.0006, "RA_OF_ASC_NODE": 113.0436, "ARG_OF_PERICENTER": 271.6891, "MEAN_ANOMALY": 247.789, "EPHEMERIS_TYPE": 0, "CLASSIFICATION_TYPE": "U", "NORAD_CAT_ID": 66848, "ELEMENT_SET_NO": 999, "REV_AT_EPOCH": 164, "BSTAR": -0.0047912457, "MEAN_MOTION_DOT": -0.01142852, "MEAN_MOTION_DDOT": 0}, "tle": {"line1": "1 66848U 25281A   25348.25003472 -.01142852  00000+0 -47912-2 0  9994", "line2": "2 66848  43.0006 113.0436 0001512 271.6891 247.7890 15.87295795  1644"}}, "geometry": {"type": "Point", "coordinates": [156.51731470610588, 34.381809592828986]}}, {"type": "Feature", "properties": {"norad_id": 66849, "name": "STARLINK-36102", "group": "last-30-days", "lat": 35.45203356371441, "lon": 159.09087420668934, "alt_km": 309.5074883762818, "timestamp": "2025-12-14T20:40:30.516979+00:00", "meta": {"OBJECT_NAME": "STARLINK-36102", "OBJECT_ID": "2025-281B", "EPOCH": "2025-12-14T06:00:02.999808", "MEAN_MOTION": 15.87303718, "ECCENTRICITY": 0.00013555, "INCLINATION": 43.0008, "RA_OF_ASC_NODE": 113.0375, "ARG_OF_PERICENTER": 269.984, "MEAN_ANOMALY": 251.853, "EPHEMERIS_TYPE": 0, "CLASSIFICATION_TYPE": "U", "NORAD_CAT_ID": 66849, "ELEMENT_SET_NO": 999, "REV_AT_EPOCH": 164, "BSTAR": -0.0048078976, "MEAN_MOTION_DOT": -0.01146633, "MEAN_MOTION_DDOT": 0}, "tle": {"line1": "1 66849U 25281B   25348.25003472 -.01146633  00000+0 -48079-2 0  9991", "line2": "2 66849  43.0008 113.0375 0001355 269.9840 251.8530 15.87303718  1640"}}, "geometry": {"type": "Point", "coordinates": [159.09087420668934, 35.45203356371441]}}, {"type": "Feature", "properties": {"norad_id": 66850, "name": "STARLINK-36105", "group": "last-30-days", "lat": 36.75919105223411, "lon": 162.54105547898632, "alt_km": 309.51830267731566, "timestamp": "2025-12-14T20:40:30.516989+00:00", "meta": {"OBJECT_NAME": "STARLINK-36105", "OBJECT_ID": "2025-281C", "EPOCH": "2025-12-14T06:00:02.999808", "MEAN_MOTION": 15.87294915, "ECCENTRICITY": 0.00014866, "INCLINATION": 43.0005, "RA_OF_ASC_NODE": 113.0296, "ARG_OF_PERICENTER": 265.8198, "MEAN_ANOMALY": 259.1292, "EPHEMERIS_TYPE": 0, "CLASSIFICATION_TYPE": "U", "NORAD_CAT_ID": 66850, "ELEMENT_SET_NO": 999, "REV_AT_EPOCH": 164, "BSTAR": -0.0048407307, "MEAN_MOTION_DOT": -0.01153123, "MEAN_MOTION_DDOT": 0}, "tle": {"line1": "1 66850U 25281C   25348.25003472 -.01153123  00000+0 -48407-2 0  9990", "line2": "2 66850  43.0005 113.0296 0001486 265.8198 259.1292 15.87294915  1641"}}, "geometry": {"type": "Point", "coordinates": [162.54105547898632, 36.75919105223411]}}, {"type": "Feature", "properties": {"norad_id": 66851, "name": "STARLINK-36094", "group": "last-30-days", "lat": 37.728048372888665, "lon": 165.37474983650694, "alt_km": 309.27658365491425, "timestamp": "2025-12-14T20:40:30.517001+00:00", "meta": {"OBJECT_NAME": "STARLINK-36094", "OBJECT_ID": "2025-281D", "EPOCH": "2025-12-14T06:00:02.999808", "MEAN_MOTION": 15.87307853, "ECCENTRICITY": 0.00014295, "INCLINATION": 43.0005, "RA_OF_ASC_NODE": 113.0233, "ARG_OF_PERICENTER": 272.7281, "MEAN_ANOMALY": 254.665, "EPHEMERIS_TYPE": 0, "CLASSIFICATION_TYPE": "U", "NORAD_CAT_ID": 66851, "ELEMENT_SET_NO": 999, "REV_AT_EPOCH": 164, "BSTAR": -0.0048886948, "MEAN_MOTION_DOT": -0.01185892, "MEAN_MOTION_DDOT": 0}, "tle": {"line1": "1 66851U 25281D   25348.25003472 -.01185892  00000+0 -48887-2 0  9991", "line2": "2 66851  43.0005 113.0233 0001429 272.7281 254.6650 15.87307853  1644"}}, "geometry": {"type": "Point", "coordinates": [165.37474983650694, 37.728048372888665]}}, {"type": "Feature", "properties": {"norad_id": 66852, "name": "STARLINK-35992", "group": "last-30-days", "lat": 38.599347235436404, "lon": 168.18682426084652, "alt_km": 309.2919225659871, "timestamp": "2025-12-14T20:40:30.517011+00:00", "meta": {"OBJECT_NAME": "STARLINK-35992", "OBJECT_ID": "2025-281E", "EPOCH": "2025-12-14T06:00:02.999808", "MEAN_MOTION": 15.87317939, "ECCENTRICITY": 0.00016003, "INCLINATION": 43.0006, "RA_OF_ASC_NODE": 113.0176, "ARG_OF_PERICENTER": 270.3082, "MEAN_ANOMALY": 259.4477, "EPHEMERIS_TYPE": 0, "CLASSIFICATION_TYPE": "U", "NORAD_CAT_ID": 66852, "ELEMENT_SET_NO": 999, "REV_AT_EPOCH": 164, "BSTAR": -0.0049062189, "MEAN_MOTION_DOT": -0.01190324, "MEAN_MOTION_DDOT": 0}, "tle": {"line1": "1 66852U 25281E   25348.25003472 -.01190324  00000+0 -49062-2 0  9994", "line2": "2 66852  43.0006 113.0176 0001600 270.3082 259.4477 15.87317939  1642"}}, "geometry": {"type": "Point", "coordinates": [168.18682426084652, 38.599347235436404]}}, {"type": "Feature", "properties": {"norad_id": 66853, "name": "STARLINK-35986", "group": "last-30-days", "lat": 39.67910462479349, "lon": 172.14325104553203, "alt_km": 309.2325280307077, "timestamp": "2025-12-14T20:40:30.517021+00:00", "meta": {"OBJECT_NAME": "STARLINK-35986", "OBJECT_ID": "2025-281F", "EPOCH": "2025-12-14T06:00:02.999808", "MEAN_MOTION": 15.87307633, "ECCENTRICITY": 0.00016133, "INCLINATION": 43.0006, "RA_OF_ASC_NODE": 113.0091, "ARG_OF_PERICENTER": 270.9089, "MEAN_ANOMALY": 262.1424, "EPHEMERIS_TYPE": 0, "CLASSIFICATION_TYPE": "U", "NORAD_CAT_ID": 66853, "ELEMENT_SET_NO": 999, "REV_AT_EPOCH": 164, "BSTAR": -0.0049584553, "MEAN_MOTION_DOT": -0.01201082, "MEAN_MOTION_DDOT": 0}, "tle": {"line1": "1 66853U 25281F   25348.25003472 -.01201082  00000+0 -49585-2 0  9999", "line2": "2 66853  43.0006 113.0091 0001613 270.9089 262.1424 15.87307633  1649"}}, "geometry": {"type": "Point", "coordinates": [172.14325104553203, 39.67910462479349]}}, {"type": "Feature", "properties": {"norad_id": 66854, "name": "STARLINK-36087", "group": "last-30-days", "lat": 40.58280787477737, "lon": 176.04129882159742, "alt_km": 309.24187367798913, "timestamp": "2025-12-14T20:40:30.517031+00:00", "meta": {"OBJECT_NAME": "STARLINK-36087", "OBJECT_ID": "2025-281G", "EPOCH": "2025-12-14T06:00:02.999808", "MEAN_MOTION": 15.87299851, "ECCENTRICITY": 0.00016641, "INCLINATION": 43.0006, "RA_OF_ASC_NODE": 113.0009, "ARG_OF_PERICENTER": 267.3094, "MEAN_ANOMALY": 268.888, "EPHEMERIS_TYPE": 0, "CLASSIFICATION_TYPE": "U", "NORAD_CAT_ID": 66854, "ELEMENT_SET_NO": 999, "REV_AT_EPOCH": 164, "BSTAR": -0.0049911481, "MEAN_MOTION_DOT": -0.01207752, "MEAN_MOTION_DDOT": 0}, "tle": {"line1": "1 66854U 25281G   25348.25003472 -.01207752  00000+0 -49911-2 0  9993", "line2": "2 66854  43.0006 113.0009 0001664 267.3094 268.8880 15.87299851  1642"}}, "geometry": {"type": "Point", "coordinates": [176.04129882159742, 40.58280787477737]}}]}